{"type": "FeatureCollection", "features": [ {"type": "Feature", "properties": {"norad_id": 34141, "name": "COSMOS 2251 DEB", "group": "cosmos-2251-debris", "lat": -74.00176930037013, "lon": -41.698824046152524, "alt_km": 758.8177786158058, "timestamp": "2025-12-02T08:59:33.108578+00:00", "meta": {"OBJECT_NAME": "COSMOS 2251 DEB", "OBJECT_ID": "1993-036LN", "EPOCH": "2025-12-02T04:34:35.813856", "MEAN_MOTION": 14.49033559, "ECCENTRICITY": 0.0048537, "INCLINATION": 74.0117, "RA_OF_ASC_NODE": 48.6753, "ARG_OF_PERICENTER": 138.232, "MEAN_ANOMALY": 251.9144, "EPHEMERIS_TYPE": 0, "CLASSIFICATION_TYPE": "U", "NORAD_CAT_ID": 34141, "ELEMENT_SET_NO": 999, "REV_AT_EPOCH": 87541, "BSTAR": 0.0020225, "MEAN_MOTION_DOT": 7.772e-05, "MEAN_MOTION_DDOT": 0}, "tle": {"line1": "1 34141U 93036LN  25336.19069229  .00007772  00000+0  20225-2 0  9996", "line2": "2 34141  74.0117  48.6753 0048537 138.2320 251.9144 14.49033559875418"}}, "geometry": {"type": "Point", "coordinates": [-41.698824046152524, -74.00176930037013]}}, {"type": "Feature", "properties": {"norad_id": 34270, "name": "COSMOS 2251 DEB", "group": "cosmos-2251-debris", "lat": -9.246546304492608, "lon": -36.075141315362046, "alt_km": 703.1802391869223, "timestamp": "2025-12-02T08:59:33.108588+00:00", "meta": {"OBJECT_NAME": "COSMOS 2251 DEB", "OBJECT_ID": "1993-036LQ", "EPOCH": "2025-12-02T02:28:52.686912", "MEAN_MOTION": 14.65073288, "ECCENTRICITY": 0.0047868, "INCLINATION": 74.0111, "RA_OF_ASC_NODE": 327.1228, "ARG_OF_PERICENTER": 123.2403, "MEAN_ANOMALY": 237.3367, "EPHEMERIS_TYPE": 0, "CLASSIFICATION_TYPE": "U", "NORAD_CAT_ID": 34270, "ELEMENT_SET_NO": 999, "REV_AT_EPOCH": 88940, "BSTAR": 0.00067366, "MEAN_MOTION_DOT": 3.647e-05, "MEAN_MOTION_DDOT": 0}, "tle": {"line1": "1 34270U 93036LQ  25336.10338758  .00003647  00000+0  67366-3 0  9991", "line2": "2 34270  74.0111 327.1228 0047868 123.2403 237.3367 14.65073288889409"}}, "geometry": {"type": "Point", "coordinates": [-36.075141315362046, -9.246546304492608]}}, {"type": "Feature", "properties": {"norad_id": 34271, "name": "COSMOS 2251 DEB", "group": "cosmos-2251-debris", "lat": 73.7274258281818, "lon": -39.5398576584124, "alt_km": 666.38580470529, "timestamp": "2025-12-02T08:59:33.108598+00:00", "meta": {"OBJECT_NAME": "COSMOS 2251 DEB", "OBJECT_ID": "1993-036LR", "EPOCH": "2025-12-02T02:43:20.333856", "MEAN_MOTION": 14.7037433, "ECCENTRICITY": 0.0019819, "INCLINATION": 74.0211, "RA_OF_ASC_NODE": 219.9673, "ARG_OF_PERICENTER": 275.3903, "MEAN_ANOMALY": 235.2975, "EPHEMERIS_TYPE": 0, "CLASSIFICATION_TYPE": "U", "NORAD_CAT_ID": 34271, "ELEMENT_SET_NO": 999, "REV_AT_EPOCH": 88078, "BSTAR": 0.0021873, "MEAN_MOTION_DOT": 0.00013265, "MEAN_MOTION_DDOT": 0}, "tle": {"line1": "1 34271U 93036LR  25336.11342979  .00013265  00000+0  21873-2 0  9992", "line2": "2 34271  74.0211 219.9673 0019819 275.3903 235.2975 14.70374330880784"}}, "geometry": {"type": "Point", "coordinates": [-39.5398576584124, 73.7274258281818]}}, {"type": "Feature", "properties": {"norad_id": 34273, "name": "COSMOS 2251 DEB", "group": "cosmos-2251-debris", "lat": 68.69598563800383, "lon": -119.99083533305581, "alt_km": 689.0546485982441, "timestamp": "2025-12-02T08:59:33.108608+00:00", "meta": {"OBJECT_NAME": "COSMOS 2251 DEB", "OBJECT_ID": "1993-036LT", "EPOCH": "2025-11-30T19:25:55.480224", "MEAN_MOTION": 14.61028449, "ECCENTRICITY": 0.00145917, "INCLINATION": 74.0344, "RA_OF_ASC_NODE": 110.2333, "ARG_OF_PERICENTER": 235.2366, "MEAN_ANOMALY": 280.9577, "EPHEMERIS_TYPE": 0, "CLASSIFICATION_TYPE": "U", "NORAD_CAT_ID": 34273, "ELEMENT_SET_NO": 999, "REV_AT_EPOCH": 88447, "BSTAR": 0.0011087213, "MEAN_MOTION_DOT": 5.424e-05, "MEAN_MOTION_DDOT": 0}, "tle": {"line1": "1 34273U 93036LT  25334.80966991  .00005424  00000+0  11087-2 0  9998", "line2": "2 34273  74.0344 110.2333 0014591 235.2366 280.9577 14.61028449884471"}}, "geometry": {"type": "Point", "coordinates": [-119.99083533305581, 68.69598563800383]}}, {"type": "Feature", "properties": {"norad_id": 34274, "name": "COSMOS 2251 DEB", "group": "cosmos-2251-debris", "lat": 51.725820046809034, "lon": 109.85347690469128, "alt_km": 689.358977429476, "timestamp": "2025-12-02T08:59:33.108619+00:00", "meta": {"OBJECT_NAME": "COSMOS 2251 DEB", "OBJECT_ID": "1993-036LU", "EPOCH": "2025-12-01T14:46:35.717952", "MEAN_MOTION": 14.64539828, "ECCENTRICITY": 0.00227166, "INCLINATION": 74.0033, "RA_OF_ASC_NODE": 89.9943, "ARG_OF_PERICENTER": 240.4798, "MEAN_ANOMALY": 134.258, "EPHEMERIS_TYPE": 0, "CLASSIFICATION_TYPE": "U", "NORAD_CAT_ID": 34274, "ELEMENT_SET_NO": 999, "REV_AT_EPOCH": 88513, "BSTAR": 0.0014346565, "MEAN_MOTION_DOT": 7.616e-05, "MEAN_MOTION_DDOT": 0}, "tle": {"line1": "1 34274U 93036LU  25335.61569118  .00007616  00000+0  14347-2 0  9996", "line2": "2 34274  74.0033  89.9943 0022716 240.4798 134.2580 14.64539828885131"}}, "geometry": {"type": "Point", "coordinates": [109.85347690469128, 51.725820046809034]}}, {"type": "Feature", "properties": {"norad_id": 34276, "name": "COSMOS 2251 DEB", "group": "cosmos-2251-debris", "lat": -73.82828274922173, "lon": 23.910770850503745, "alt_km": 694.378720840281, "timestamp": "2025-12-02T08:59:33.108628+00:00", "meta": {"OBJECT_NAME": "COSMOS 2251 DEB", "OBJECT_ID": "1993-036LW", "EPOCH": "2025-12-01T19:07:13.689408", "MEAN_MOTION": 14.57091222, "ECCENTRICITY": 0.0022799, "INCLINATION": 74.0224, "RA_OF_ASC_NODE": 106.1231, "ARG_OF_PERICENTER": 253.4105, "MEAN_ANOMALY": 228.2784, "EPHEMERIS_TYPE": 0, "CLASSIFICATION_TYPE": "U", "NORAD_CAT_ID": 34276, "ELEMENT_SET_NO": 999, "REV_AT_EPOCH": 88433, "BSTAR": 0.00095048, "MEAN_MOTION_DOT": 4.27e-05, "MEAN_MOTION_DDOT": 0}, "tle": {"line1": "1 34276U 93036LW  25335.79668622  .00004270  00000+0  95048-3 0  9998", "line2": "2 34276  74.0224 106.1231 0022799 253.4105 228.2784 14.57091222884338"}}, "geometry": {"type": "Point", "coordinates": [23.910770850503745, -73.82828274922173]}}, {"type": "Feature", "properties": {"norad_id": 34297, "name": "COSMOS 2251 DEB", "group": "cosmos-2251-debris", "lat": -28.46060021999964, "lon": -65.6534760567926, "alt_km": 766.5216043191667, "timestamp": "2025-12-02T08:59:33.108639+00:00", "meta": {"OBJECT_NAME": "COSMOS 2251 DEB", "OBJECT_ID": "1993-036MT", "EPOCH": "2025-12-02T04:11:11.361120", "MEAN_MOTION": 14.36613005, "ECCENTRICITY": 0.0016807, "INCLINATION": 74.0482, "RA_OF_ASC_NODE": 303.6333, "ARG_OF_PERICENTER": 14.6997, "MEAN_ANOMALY": 0.5792, "EPHEMERIS_TYPE": 0, "CLASSIFICATION_TYPE": "U", "NORAD_CAT_ID": 34297, "ELEMENT_SET_NO": 999, "REV_AT_EPOCH": 87913, "BSTAR": 0.0001761, "MEAN_MOTION_DOT": 4.93e-06, "MEAN_MOTION_DDOT": 0}, "tle": {"line1": "1 34297U 93036MT  25336.17443705  .00000493  00000+0  17610-3 0  9999", "line2": "2 34297  74.0482 303.6333 0016807  14.6997   0.5792 14.36613005879131"}}, "geometry": {"type": "Point", "coordinates": [-65.6534760567926, -28.46060021999964]}}, {"type": "Feature", "properties": {"norad_id": 34299, "name": "COSMOS 2251 DEB", "group": "cosmos-2251-debris", "lat": 50.80489412222553, "lon": 157.24344824373367, "alt_km": 380.5899125470005, "timestamp": "2025-12-02T08:59:33.108650+00:00", "meta": {"OBJECT_NAME": "COSMOS 2251 DEB", "OBJECT_ID": "1993-036MV", "EPOCH": "2025-12-02T03:49:52.925376", "MEAN_MOTION": 15.57825891, "ECCENTRICITY": 0.00252, "INCLINATION": 73.984, "RA_OF_ASC_NODE": 358.3484, "ARG_OF_PERICENTER": 64.1855, "MEAN_ANOMALY": 296.1957, "EPHEMERIS_TYPE": 0, "CLASSIFICATION_TYPE": "U", "NORAD_CAT_ID": 34299, "ELEMENT_SET_NO": 999, "REV_AT_EPOCH": 88845, "BSTAR": 0.0053822, "MEAN_MOTION_DOT": 0.00428117, "MEAN_MOTION_DDOT": 0}, "tle": {"line1": "1 34299U 93036MV  25336.15964034  .00428117  00000+0  53822-2 0  9993", "line2": "2 34299  73.9840 358.3484 0025200  64.1855 296.1957 15.57825891888456"}}, "geometry": {"type": "Point", "coordinates": [157.24344824373367, 50.80489412222553]}}, {"type": "Feature", "properties": {"norad_id": 34301, "name": "COSMOS 2251 DEB", "group": "cosmos-2251-debris", "lat": -52.34556253193491, "lon": 165.4679309095192, "alt_km": 619.5764850079522, "timestamp": "2025-12-02T08:59:33.108660+00:00", "meta": {"OBJECT_NAME": "COSMOS 2251 DEB", "OBJECT_ID": "1993-036MX", "EPOCH": "2025-12-02T01:51:29.800800", "MEAN_MOTION": 14.83737418, "ECCENTRICITY": 0.0012497, "INCLINATION": 74.0066, "RA_OF_ASC_NODE": 187.8785, "ARG_OF_PERICENTER": 246.6039, "MEAN_ANOMALY": 270.7508, "EPHEMERIS_TYPE": 0, "CLASSIFICATION_TYPE": "U", "NORAD_CAT_ID": 34301, "ELEMENT_SET_NO": 999, "REV_AT_EPOCH": 88242, "BSTAR": 0.0029298, "MEAN_MOTION_DOT": 0.00024327, "MEAN_MOTION_DDOT": 0}, "tle": {"line1": "1 34301U 93036MX  25336.07742825  .00024327  00000+0  29298-2 0  9995", "line2": "2 34301  74.0066 187.8785 0012497 246.6039 270.7508 14.83737418882422"}}, "geometry": {"type": "Point", "coordinates": [165.4679309095192, -52.34556253193491]}}, {"type": "Feature", "properties": {"norad_id": 34302, "name": "COSMOS 2251 DEB", "group": "cosmos-2251-debris", "lat": -73.35988800151411, "lon": 34.13952981329886, "alt_km": 773.2973602364009, "timestamp": "2025-12-02T08:59:33.108671+00:00", "meta": {"OBJECT_NAME": "COSMOS 2251 DEB", "OBJECT_ID": "1993-036MY", "EPOCH": "2025-12-01T20:38:31.255008", "MEAN_MOTION": 14.39262496, "ECCENTRICITY": 0.0078124, "INCLINATION": 74.1772, "RA_OF_ASC_NODE": 143.4872, "ARG_OF_PERICENTER": 1.8894, "MEAN_ANOMALY": 118.542, "EPHEMERIS_TYPE": 0, "CLASSIFICATION_TYPE": "U", "NORAD_CAT_ID": 34302, "ELEMENT_SET_NO": 999, "REV_AT_EPOCH": 87564, "BSTAR": 0.00066813, "MEAN_MOTION_DOT": 2.123e-05, "MEAN_MOTION_DDOT": 0}, "tle": {"line1": "1 34302U 93036MY  25335.86008397  .00002123  00000+0  66813-3 0  9996", "line2": "2 34302  74.1772 143.4872 0078124   1.8894 118.5420 14.39262496875640"}}, "geometry": {"type": "Point", "coordinates": [34.13952981329886, -73.35988800151411]}}]}